{"version": 0.6, "generator": "Overpass API 0.7.62.8 e802775f", "osm3s": {"timestamp_osm_base": "2025-08-18T23:22:02Z", "copyright": "The data included in this document is from www.openstreetmap.org. The data is made available under ODbL."}, "elements": [{"type": "node", "id": 5083799844, "lat": 4.8756405, "lon": 6.9156361}, {"type": "node", "id": 5083799845, "lat": 4.8756387, "lon": 6.9157051}, {"type": "node", "id": 5083799846, "lat": 4.8755382, "lon": 6.9157051}, {"type": "node", "id": 5083799847, "lat": 4.8755417, "lon": 6.9156361}, {"type": "node", "id": 5586213225, "lat": 4.8267843, "lon": 7.0151793, "tags": {"addr:city": "Port Harcourt", "addr:housenumber": "96", "addr:street": "Stadium Road", "alt_name": "Paragon Clinic Stadium Road", "amenity": "clinic", "contact:phone": "+2348086666361", "name": "Paragon Clinic and Imaging", "website": "https://www.paragonclinicsandimaging.com/"}}, {"type": "node", "id": 5586215522, "lat": 4.8308019, "lon": 7.0614724, "tags": {"addr:street": "Eze Gbaka Gbaka", "amenity": "clinic", "name": "Cumi", "name:en": "Cumi Medical Center"}}, {"type": "node", "id": 5588022222, "lat": 4.8261081, "lon": 7.0495419, "tags": {"addr:housenumber": "20/22", "addr:street": "Woji Road", "amenity": "clinic", "name": "Precision Imaging Consultant"}}, {"type": "node", "id": 5589845323, "lat": 4.8498121, "lon": 7.0633047, "tags": {"addr:street": "Old Refinery Road", "amenity": "clinic", "name": "Sudi Medical Services"}}, {"type": "node", "id": 5593025925, "lat": 4.8309347, "lon": 7.0255472, "tags": {"addr:housenumber": "51", "addr:street": "Market Road", "amenity": "clinic", "name": "Antek Medical Laboratories"}}, {"type": "node", "id": 5595817426, "lat": 4.8366505, "lon": 7.0314305, "tags": {"addr:housenumber": "3b", "addr:street": "Ekere Road", "amenity": "clinic", "name": "TLC Eye Clinic"}}, {"type": "node", "id": 5596418027, "lat": 4.8343803, "lon": 7.027787, "tags": {"addr:housenumber": "16", "amenity": "clinic", "name": "Kez Clinic"}}, {"type": "node", "id": 5596422323, "lat": 4.833964, "lon": 7.0285496, "tags": {"addr:housenumber": "18", "addr:street": "Geodetic Road", "amenity": "clinic", "name": "PIX Centre"}}, {"type": "node", "id": 5596422329, "lat": 4.8339879, "lon": 7.0283596, "tags": {"addr:housenumber": "18", "addr:street": "Geodetic Road", "amenity": "clinic", "name": "PIX Centre"}}, {"type": "node", "id": 5596422724, "lat": 4.8339436, "lon": 7.0268517, "tags": {"amenity": "clinic", "name": "Whimsical Clinic"}}, {"type": "node", "id": 5597053525, "lat": 4.8413616, "lon": 7.033862, "tags": {"addr:housenumber": "230", "addr:street": "Enugu - Port Harcourt Expressway", "amenity": "clinic", "name": "Rivon Clinic"}}, {"type": "node", "id": 5599578835, "lat": 4.8366138, "lon": 7.0336818, "tags": {"addr:housenumber": "112", "addr:street": "Old Aba Road", "amenity": "clinic", "name": "Siya Medical Center"}}, {"type": "node", "id": 5599590226, "lat": 4.8473783, "lon": 7.0479631, "tags": {"addr:street": "Enugu - Port Harcourt Expressway", "amenity": "clinic", "name": "Niger Optical Eye Clinic"}}, {"type": "node", "id": 5599590238, "lat": 4.8381758, "lon": 7.0330914, "tags": {"addr:housenumber": "41", "addr:street": "Enugu Street", "amenity": "clinic", "name": "BES Clinic"}}, {"type": "node", "id": 5599590253, "lat": 4.8282515, "lon": 7.0375517, "tags": {"addr:street": "Oginigba Link Road", "amenity": "clinic", "name": "Cleveland Clinic"}}, {"type": "node", "id": 5599599521, "lat": 4.8504037, "lon": 7.0625887, "tags": {"addr:street": "MTN Road", "amenity": "clinic", "name": "New Day Clinic and Maternity"}}, {"type": "node", "id": 5884957883, "lat": 4.896386, "lon": 6.926102}, {"type": "node", "id": 5884958185, "lat": 4.8974813, "lon": 6.924081}, {"type": "node", "id": 5884958186, "lat": 4.897645, "lon": 6.9237836}, {"type": "node", "id": 6273423027, "lat": 4.8000347, "lon": 7.0191408}, {"type": "node", "id": 6277550512, "lat": 4.9017141, "lon": 6.9309365}, {"type": "node", "id": 6277550566, "lat": 4.9021225, "lon": 6.9301168}, {"type": "node", "id": 6277550586, "lat": 4.8944598, "lon": 6.9297059}, {"type": "node", "id": 6277550619, "lat": 4.8962947, "lon": 6.9309979}, {"type": "node", "id": 6277551699, "lat": 4.8954442, "lon": 6.9278574}, {"type": "node", "id": 6277551700, "lat": 4.9003865, "lon": 6.9334674}, {"type": "node", "id": 6277551701, "lat": 4.9016479, "lon": 6.9310695}, {"type": "node", "id": 6277551702, "lat": 4.9026794, "lon": 6.9289988}, {"type": "node", "id": 6277551703, "lat": 4.903417, "lon": 6.9275182}, {"type": "node", "id": 6277553550, "lat": 4.9015172, "lon": 6.9263027, "tags": {"barrier": "gate"}}, {"type": "node", "id": 6277553569, "lat": 4.8999391, "lon": 6.9252778, "tags": {"barrier": "gate"}}, {"type": "node", "id": 6763505887, "lat": 4.7941024, "lon": 6.9965595, "tags": {"amenity": "hospital", "name": "Primary Health Center, Emekuku"}}, {"type": "node", "id": 7063409270, "lat": 4.7786166, "lon": 7.01382}, {"type": "node", "id": 7063409271, "lat": 4.7804072, "lon": 7.0150442}, {"type": "node", "id": 7063409272, "lat": 4.7809728, "lon": 7.014782}, {"type": "node", "id": 7063409273, "lat": 4.7812594, "lon": 7.0145835}, {"type": "node", "id": 7063409274, "lat": 4.7813152, "lon": 7.0145224}, {"type": "node", "id": 7063409275, "lat": 4.7813659, "lon": 7.0144563}, {"type": "node", "id": 7063409276, "lat": 4.7814116, "lon": 7.0143366}, {"type": "node", "id": 7063409277, "lat": 4.7814598, "lon": 7.0141941}, {"type": "node", "id": 7063409278, "lat": 4.7815638, "lon": 7.0137487}, {"type": "node", "id": 7063409282, "lat": 4.7795269, "lon": 7.0132445}, {"type": "node", "id": 7063409283, "lat": 4.7801382, "lon": 7.0127956}, {"type": "node", "id": 7063409284, "lat": 4.7797308, "lon": 7.0133829}, {"type": "node", "id": 7063429185, "lat": 4.7791105, "lon": 7.0129909}, {"type": "node", "id": 7063429188, "lat": 4.7788062, "lon": 7.0139496}, {"type": "node", "id": 7063429209, "lat": 4.7813236, "lon": 7.0135882}, {"type": "node", "id": 7063429229, "lat": 4.7785716, "lon": 7.0138035}, {"type": "node", "id": 7063429231, "lat": 4.779053, "lon": 7.0130776}, {"type": "node", "id": 7063429344, "lat": 4.7810993, "lon": 7.0134382}, {"type": "node", "id": 7063429533, "lat": 4.7798262, "lon": 7.014647}, {"type": "node", "id": 7063429534, "lat": 4.7800714, "lon": 7.0148146}, {"type": "node", "id": 7064221223, "lat": 4.7801828, "lon": 7.0128254}, {"type": "node", "id": 7064221226, "lat": 4.7806294, "lon": 7.013124}, {"type": "node", "id": 7122417685, "lat": 4.8004949, "lon": 7.0186871}, {"type": "node", "id": 7122417686, "lat": 4.8005127, "lon": 7.0190885}, {"type": "node", "id": 7122417687, "lat": 4.800455, "lon": 7.0192086}, {"type": "node", "id": 7124632933, "lat": 4.8014791, "lon": 7.0216379}, {"type": "node", "id": 7124632934, "lat": 4.8019691, "lon": 7.0209694}, {"type": "node", "id": 7124632935, "lat": 4.802156, "lon": 7.0206651}, {"type": "node", "id": 7124632936, "lat": 4.8026604, "lon": 7.0201908}, {"type": "node", "id": 7124632937, "lat": 4.801627, "lon": 7.019122}, {"type": "node", "id": 7124632938, "lat": 4.8014295, "lon": 7.0189769}, {"type": "node", "id": 7124632939, "lat": 4.8003503, "lon": 7.0194936}, {"type": "node", "id": 7124632940, "lat": 4.7998784, "lon": 7.0199221}, {"type": "node", "id": 7511351573, "lat": 4.8120044, "lon": 6.9814454}, {"type": "node", "id": 7511351574, "lat": 4.812281, "lon": 6.9817377}, {"type": "node", "id": 7511351575, "lat": 4.8120819, "lon": 6.9818155}, {"type": "node", "id": 7511351576, "lat": 4.8119389, "lon": 6.9818598}, {"type": "node", "id": 7511351577, "lat": 4.8116729, "lon": 6.9818973}, {"type": "node", "id": 7511351578, "lat": 4.8116529, "lon": 6.981837}, {"type": "node", "id": 7511351579, "lat": 4.8116262, "lon": 6.9817659}, {"type": "node", "id": 7511351580, "lat": 4.8116048, "lon": 6.9817176}, {"type": "node", "id": 7511351581, "lat": 4.811574, "lon": 6.9816653}, {"type": "node", "id": 7511351582, "lat": 4.8115299, "lon": 6.9816157}, {"type": "node", "id": 7511351583, "lat": 4.8114551, "lon": 6.9815379}, {"type": "node", "id": 7514070417, "lat": 4.8533802, "lon": 7.0141561}, {"type": "node", "id": 7514070418, "lat": 4.8535526, "lon": 7.0143882}, {"type": "node", "id": 7514070419, "lat": 4.8532453, "lon": 7.0146832}, {"type": "node", "id": 7514070420, "lat": 4.8530742, "lon": 7.0144579}, {"type": "node", "id": 7514092103, "lat": 4.8552561, "lon": 7.014921}, {"type": "node", "id": 7514092104, "lat": 4.855188, "lon": 7.0153609}, {"type": "node", "id": 7514092105, "lat": 4.8550704, "lon": 7.0153033}, {"type": "node", "id": 7514092106, "lat": 4.8549434, "lon": 7.015259}, {"type": "node", "id": 7514092107, "lat": 4.8549621, "lon": 7.0148862}, {"type": "node", "id": 7514356236, "lat": 4.7895752, "lon": 7.0393235}, {"type": "node", "id": 7514356237, "lat": 4.7896527, "lon": 7.0399297}, {"type": "node", "id": 7514356238, "lat": 4.7894095, "lon": 7.0399753}, {"type": "node", "id": 7514356239, "lat": 4.7892838, "lon": 7.0396346}, {"type": "node", "id": 7514356240, "lat": 4.7892304, "lon": 7.0393731}, {"type": "node", "id": 7514833685, "lat": 4.7694531, "lon": 7.0162334}, {"type": "node", "id": 7514833686, "lat": 4.7706024, "lon": 7.0167994}, {"type": "node", "id": 7514833687, "lat": 4.7705008, "lon": 7.0171052}, {"type": "node", "id": 7514833688, "lat": 4.7704741, "lon": 7.01736}, {"type": "node", "id": 7514833689, "lat": 4.7704741, "lon": 7.017714}, {"type": "node", "id": 7514833690, "lat": 4.7705436, "lon": 7.0180144}, {"type": "node", "id": 7514833691, "lat": 4.7702041, "lon": 7.0183792}, {"type": "node", "id": 7514833692, "lat": 4.7694825, "lon": 7.0177435}, {"type": "node", "id": 7514833693, "lat": 4.7688543, "lon": 7.0173868}, {"type": "node", "id": 7518244253, "lat": 4.8291105, "lon": 7.0366598}, {"type": "node", "id": 7518244254, "lat": 4.829028, "lon": 7.036957}, {"type": "node", "id": 7518244255, "lat": 4.8285372, "lon": 7.0367913}, {"type": "node", "id": 7518244256, "lat": 4.828742, "lon": 7.0364643}, {"type": "node", "id": 7518272394, "lat": 4.8295131, "lon": 7.038118}, {"type": "node", "id": 7518272395, "lat": 4.8295979, "lon": 7.038325}, {"type": "node", "id": 7518272396, "lat": 4.8293526, "lon": 7.0384262}, {"type": "node", "id": 7518272397, "lat": 4.8292678, "lon": 7.0382192}, {"type": "node", "id": 7521947578, "lat": 4.8590705, "lon": 7.0720376}, {"type": "node", "id": 7521947579, "lat": 4.8590785, "lon": 7.0725311}, {"type": "node", "id": 7521947580, "lat": 4.8587636, "lon": 7.0726258}, {"type": "node", "id": 7521947581, "lat": 4.8587671, "lon": 7.0726802}, {"type": "node", "id": 7521947582, "lat": 4.8585467, "lon": 7.0727054}, {"type": "node", "id": 7521947583, "lat": 4.8585547, "lon": 7.0720349}, {"type": "node", "id": 7956224601, "lat": 4.8375574, "lon": 7.0246732, "tags": {"addr:city": "Port Harcourt", "addr:street": "Port Harcourt - Aba Expressway", "alt_name": "Pamo Clinics & Hospital", "amenity": "hospital", "name": "Pamo"}}, {"type": "node", "id": 7956225893, "lat": 4.8260686, "lon": 7.004974, "tags": {"amenity": "hospital", "name": "Military Hospital"}}, {"type": "node", "id": 8088578640, "lat": 4.8952394, "lon": 6.9281906}, {"type": "node", "id": 8088578641, "lat": 4.8959043, "lon": 6.9314701}, {"type": "node", "id": 11351037506, "lat": 4.8295718, "lon": 7.0383358}, {"type": "node", "id": 12766672835, "lat": 4.758024, "lon": 7.0317692}, {"type": "node", "id": 12766672836, "lat": 4.7580274, "lon": 7.0319661}, {"type": "node", "id": 12766672837, "lat": 4.7582836, "lon": 7.0319617}, {"type": "node", "id": 12766672838, "lat": 4.7582802, "lon": 7.0317648}, {"type": "node", "id": 12922920749, "lat": 4.9019323, "lon": 6.9088839}, {"type": "node", "id": 12922920750, "lat": 4.9019938, "lon": 6.9091087}, {"type": "node", "id": 12922920751, "lat": 4.901785, "lon": 6.9091663}, {"type": "node", "id": 12922920752, "lat": 4.9017235, "lon": 6.9089415}, {"type": "node", "id": 12922920754, "lat": 4.9019249, "lon": 6.9091374}, {"type": "node", "id": 12922920755, "lat": 4.9019453, "lon": 6.9092}, {"type": "node", "id": 12922920756, "lat": 4.9017176, "lon": 6.909275}, {"type": "node", "id": 12922920757, "lat": 4.9016972, "lon": 6.9092124}, {"type": "node", "id": 12922920758, "lat": 4.9017486, "lon": 6.9090777}, {"type": "node", "id": 12922920759, "lat": 4.9017714, "lon": 6.9091523}, {"type": "node", "id": 12922920760, "lat": 4.9015796, "lon": 6.9092112}, {"type": "node", "id": 12922920761, "lat": 4.9015755, "lon": 6.9091979}, {"type": "node", "id": 12922920762, "lat": 4.9015393, "lon": 6.909209}, {"type": "node", "id": 12922920763, "lat": 4.9015206, "lon": 6.9091478}, {"type": "node", "id": 12922920764, "lat": 4.9016625, "lon": 6.9089962}, {"type": "node", "id": 12922920765, "lat": 4.9016904, "lon": 6.9090837}, {"type": "node", "id": 12922920766, "lat": 4.9015228, "lon": 6.9091374}, {"type": "node", "id": 12922920767, "lat": 4.901495, "lon": 6.9090499}, {"type": "way", "id": 521819570, "nodes": [5083799844, 5083799845, 5083799846, 5083799847, 5083799844], "tags": {"addr:city": "port harcourt", "amenity": "hospital", "description": "maternal services", "name": "NGO Maternity", "operator": "Ngo Wali"}}, {"type": "way", "id": 670339452, "nodes": [5884958186, 6277553569, 6277553550, 6277551703]}, {"type": "way", "id": 756560005, "nodes": [7063409271, 7063429534, 7063429533, 7063429188, 7063409270, 7063429229, 7063429231, 7063429185, 7063409282, 7063409284, 7063409283, 7064221223, 7064221226, 7063429344, 7063429209, 7063409278, 7063409277, 7063409276, 7063409275, 7063409274, 7063409273, 7063409272, 7063409271], "tags": {"amenity": "hospital", "healthcare": "hospital", "name": "Braithwaite Memorial Hospital", "wikidata": "Q18163198"}}, {"type": "way", "id": 762500641, "nodes": [7124632933, 7124632934, 7124632935, 7124632936, 7124632937, 7124632938, 7122417685, 7122417686, 7122417687, 6273423027, 7124632939, 7124632940, 7124632933], "tags": {"amenity": "hospital", "healthcare": "hospital", "name": "Our Lady's Health of the Sick Hospital"}}, {"type": "way", "id": 802984738, "nodes": [7511351573, 7511351574, 7511351575, 7511351576, 7511351577, 7511351578, 7511351579, 7511351580, 7511351581, 7511351582, 7511351583, 7511351573], "tags": {"addr:city": "Port Harcourt", "addr:housenumber": "5/7", "addr:street": "Agip Road", "alt_name": "Palmer Hospital", "amenity": "hospital", "name": "Palmer Clinic", "phone": "+234 84304094", "website": "https://palmarshospital.com/"}}, {"type": "way", "id": 803285140, "nodes": [7514070417, 7514070418, 7514070419, 7514070420, 7514070417], "tags": {"addr:street": "Gynescope Street", "amenity": "hospital", "email": "gynescope@yahoo.com", "healthcare": "hospital", "name": "Gynescope Specialist Hospital", "opening_hours": "24/7", "phone": "+2348166593030", "website": "http://www.gynescopesh.com"}}, {"type": "way", "id": 803286783, "nodes": [7514092103, 7514092104, 7514092105, 7514092106, 7514092107, 7514092103], "tags": {"addr:street": "Gynescope street Rukpakulosi", "amenity": "hospital", "email": "gynescope@yahoo.com", "healthcare": "hospital", "name": "Gynescope Specialist Hospital", "opening_hours": "24/7", "phone": "+2348166593030", "website": "http://www.gynescopesh.com"}}, {"type": "way", "id": 803312357, "nodes": [7514356236, 7514356237, 7514356238, 7514356239, 7514356240, 7514356236], "tags": {"amenity": "hospital", "healthcare": "hospital", "name": "Global Rayfield Medical Center", "name:en": "Global Rayfield Medical Center"}}, {"type": "way", "id": 803358806, "nodes": [7514833685, 7514833686, 7514833687, 7514833688, 7514833689, 7514833690, 7514833691, 7514833692, 7514833693, 7514833685], "tags": {"addr:city": "Port Harcourt", "amenity": "hospital", "description": "Primary Health care centre", "name": "Sick Bay,PH City Council", "operator": "PH City council"}}, {"type": "way", "id": 803727874, "nodes": [7518244253, 7518244254, 7518244255, 7518244256, 7518244253], "tags": {"amenity": "hospital", "healthcare": "hospital", "name": "NOBSAMS Hospital"}}, {"type": "way", "id": 803728715, "nodes": [7518272394, 7518272395, 11351037506, 7518272396, 7518272397, 7518272394], "tags": {"addr:street": "Oginigba Link Road", "amenity": "hospital", "healthcare": "hospital", "name": "Ansett Diagotics Hospital"}}, {"type": "way", "id": 804180553, "nodes": [7521947578, 7521947579, 7521947580, 7521947581, 7521947582, 7521947583, 7521947578], "tags": {"addr:street": "Port Harcourt-Aba Road", "amenity": "hospital", "healthcare": "hospital", "name": "Shawsand Medical Centre"}}, {"type": "way", "id": 867769650, "nodes": [6277551699, 8088578640, 6277550586, 8088578641, 6277550619, 6277551700, 6277551701, 6277550512, 6277550566]}, {"type": "way", "id": 867769651, "nodes": [5884958186, 5884958185, 5884957883, 6277551699]}, {"type": "way", "id": 867769664, "nodes": [6277550566, 6277551702, 6277551703]}, {"type": "way", "id": 1378722875, "nodes": [12766672835, 12766672836, 12766672837, 12766672838, 12766672835], "tags": {"amenity": "hospital", "building": "hospital", "healthcare": "hospital", "name": "Our Saviour's Hospital"}}, {"type": "way", "id": 1396179742, "nodes": [12922920749, 12922920750, 12922920751, 12922920752, 12922920749], "tags": {"access": "yes", "addr:city": "University of Port Harcourt, Abuja Campus, Choba, Rivers State.", "addr:street": "Aluu Drive", "amenity": "clinic", "building": "yes", "condition": "good", "healthcare": "clinic", "healthcare:speciality": "emergency", "name": "O. B. Lulu Briggs Health Center", "opening_hours": "24/7", "operator": "Uniport"}}, {"type": "way", "id": 1396179743, "nodes": [12922920754, 12922920755, 12922920756, 12922920757, 12922920754], "tags": {"addr:city": "University of Port Harcourt, Abuja Campus, Choba, Rivers State.", "addr:street": "Aluu Drive", "amenity": "clinic", "building": "yes", "healthcare": "clinic", "name": "O. B. Lulu Briggs Health Center"}}, {"type": "way", "id": 1396179744, "nodes": [12922920758, 12922920759, 12922920760, 12922920761, 12922920762, 12922920763, 12922920758], "tags": {"addr:city": "University of Port Harcourt, Abuja Campus, Choba, Rivers State.", "addr:street": "Aluu Drive", "amenity": "clinic", "building": "yes", "healthcare": "clinic"}}, {"type": "way", "id": 1396179745, "nodes": [12922920764, 12922920765, 12922920766, 12922920767, 12922920764], "tags": {"addr:city": "University of Port Harcourt, Abuja Campus, Choba, Rivers State.", "addr:street": "Aluu Drive", "amenity": "clinic", "building": "yes", "healthcare": "clinic", "name": "O. B. Lulu Briggs Health Center"}}, {"type": "relation", "id": 11844236, "members": [{"type": "way", "ref": 670339452, "role": "outer"}, {"type": "way", "ref": 867769664, "role": "outer"}, {"type": "way", "ref": 867769650, "role": "outer"}, {"type": "way", "ref": 867769651, "role": "outer"}], "tags": {"amenity": "hospital", "emergency": "yes", "healthcare": "hospital", "name": "University of Port Harcourt Teaching Hospital", "short_name": "UPTH", "type": "multipolygon", "wikidata": "Q18357175", "wikipedia": "en:University of Port Harcourt Teaching Hospital"}}]}